{
  "norad_id": 68811,
  "name": "STARLINK-37442",
  "history": [
    {
      "epoch": "2026-04-27T12:55:55.314624Z",
      "apogee_km": 266.8383633868798,
      "perigee_km": 265.7274163812908,
      "latitude_deg": 1.2393288903836374e-05,
      "longitude_deg": -86.81938091074511,
      "height_km": 269.7944648019517,
      "semi_major_axis_km": 6644.419889884085,
      "eccentricity": 8.36e-05,
      "inclination_deg": 97.2862,
      "raan_deg": 322.6883,
      "arg_perigee_deg": 123.5717,
      "mean_anomaly_deg": 236.5643,
      "mean_motion_rev_day": 16.02939598
    }
  ]
}