STARLINK-37442          
1 68811U 26089K   26117.53883466 -.00811169  22996-3 -13536-2 0  9998
2 68811  97.2862 322.6883 0000836 123.5717 236.5643 16.02939598   714
